
HAWK-10B                
1 60545U 24149CF  24343.78467999  .00003743  00000+0  36151-3 0  9990
2 60545  97.7376  57.4150 0006569 136.3957 223.7783 14.93424005 16992
ICEYE-X39               
1 60546U 24149CG  24344.46745840  .00008007  00000+0  74531-3 0  9993
2 60546  97.7331  58.1514 0005729 127.7412 232.4329 14.94550532 17106
UMBRA-10                
1 60547U 24149CH  24344.48388573  .00020840  00000+0  17722-2 0  9999
2 60547  97.7362  58.4934 0005182 133.5493 226.6160 14.97848332 17139
ICEYE-X33               
1 60548U 24149CJ  24343.76751403  .00010795  00000+0  98199-3 0  9992
2 60548  97.7371  57.5805 0006060 131.9486 228.2252 14.95366783 17006
ICEYE-X40               
1 60549U 24149CK  24344.18847515  .00007846  00000+0  72641-3 0  9997
2 60549  97.7350  57.9240 0006132 130.0483 230.1276 14.94764416 17066
SATELIOT_1              
1 60550U 24149CL  24344.18166991  .00004903  00000+0  45879-3 0  9995
2 60550  97.7302  57.8587 0008388 126.3686 233.8309 14.94523762 17060
BRO-14                  
1 60551U 24149CM  24343.59637760  .00002733  00000+0  26221-3 0  9996
2 60551  97.7416  57.4123 0007737 144.3671 215.8067 14.93900395 16970
SATELIOT_3              
1 60552U 24149CN  24344.16197082  .00007700  00000+0  71117-3 0  9992
2 60552  97.7366  57.9805 0009243 136.3555 223.8398 14.94852472 17063
BRO-15                  
1 60553U 24149CP  24344.17595798  .00002674  00000+0  25414-3 0  9994
2 60553  97.7351  57.9364 0009336 134.4519 225.7467 14.94285070 17062
UM5-RIBAT               
1 60554U 24149CQ  24344.46828622  .00007262  00000+0  66085-3 0  9999
2 60554  97.7305  58.2744 0009544 128.2837 231.9244 14.95452236 17112
UM5-EOSAT               
1 60555U 24149CR  24344.18704414  .00006967  00000+0  62875-3 0  9995
2 60555  97.7382  58.1204 0009421 135.4710 224.7270 14.95796356 17070
KANYINI                 
1 60556U 24149CS  24343.73850657  .00022650  00000+0  10246-2 0  9998
2 60556  97.4311  57.5007 0004023  76.0963 284.0720 15.20914858 17298
TROOP-F2 (CELESTIS-24)  
1 60557U 24149CT  24344.46423994  .00029451  00000+0  12005-2 0  9991
2 60557  97.4244  58.4243 0005463  62.3375 297.8416 15.24396023 17421
FLOCK 4BE-35            
1 60558U 24149CU  24344.16592691  .00016709  00000+0  72586-3 0  9993
2 60558  97.4324  58.1854 0004752 107.6847 252.4908 15.22363187 17373
FLOCK 4BE-5             
1 60559U 24149CV  24343.76736331  .00015002  00000+0  65297-3 0  9996
2 60559  97.4349  57.8238 0005519 109.6425 250.5408 15.22316459 17317
FLOCK 4BE-12            
1 60560U 24149CW  24343.75295203  .00016728  00000+0  71648-3 0  9998
2 60560  97.4279  57.7400 0006497 110.3906 249.8029 15.22835667 17317
FLOCK 4BE-3             
1 60561U 24149CX  24344.15541058  .00018008  00000+0  77471-3 0  9999
2 60561  97.4265  58.1010 0007339 104.0318 256.1735 15.22664176 17374
HYPERFIELD-1A           
1 60562U 24149CY  24344.45920169  .00011201  00000+0  50223-3 0  9991
2 60562  97.4338  58.4093 0007674 106.8359 253.3719 15.21359679 17411
FLOCK 4BE-19            
1 60563U 24149CZ  24343.73540192  .00017409  00000+0  73821-3 0  9991
2 60563  97.4282  57.7733 0007015 110.9857 249.2130 15.23163782 17311
2024-149DA              
1 60564U 24149DA  24340.19195255  .00007922  00000+0  62669-3 0  9992
2 60564  97.7338  54.4490 0001869 203.3815 156.7324 15.00896760 16492
PTD-4 (LISA-T)          
1 60565U 24149DB  24344.17915611  .00024208  00000+0  20607-2 0  9992
2 60565  97.7437  58.1918 0002290 122.2918 237.8526 14.97782701 17075
2024-149DC              
1 60566U 24149DC  24344.45305115  .00035289  00000+0  27283-2 0  9994
2 60566  97.7336  58.7038 0001829 204.7292 155.3844 15.01399837 17146
2024-149DD              
1 60567U 24149DD  24343.78224020  .00037403  00000+0  28857-2 0  9993
2 60567  97.7356  58.0497 0001002 213.3411 146.7750 15.01465120 17030
2024-149DE              
1 60568U 24149DE  24341.52024552  .00008292  00000+0  65106-3 0  9995
2 60568  97.7336  55.7839 0001644 200.0788 160.0372 15.01167382 16694
2024-149DF              
1 60569U 24149DF  24341.64994875  .00012681  00000+0  98971-3 0  9996
2 60569  97.7345  55.9248 0001131 211.2403 148.8754 15.01279129 16714
2024-149DG              
1 60570U 24149DG  24344.25448999  .00040395  00000+0  31241-2 0  9998
2 60570  97.7328  58.5032 0001752 203.6720 156.4424 15.01351257 17109
2024-149DH              
1 60571U 24149DH  24343.68101440  .00035514  00000+0  26654-2 0  9991
2 60571  97.7385  58.0225 0003805  60.8118 299.3487 15.02524367 17029
2024-149DJ              
1 60572U 24149DJ  24341.63294136  .00031031  00000+0  23748-2 0  9991
2 60572  97.7449  55.9521 0001915  74.3187 285.8248 15.01819734 16716
ION SCV-012             
1 60573U 24149DK  24344.48575946  .00003394  00000+0  33350-3 0  9991
2 60573  97.7359  58.0134 0004684 121.2133 238.9545 14.92802408 17090
GNOMES-5                
1 60574U 24149DL  24344.48458346  .00009207  00000+0  85602-3 0  9992
2 60574  97.7374  58.1928 0003859 129.2332 230.9231 14.94558828 17104
HAWK-10C                
1 60575U 24149DM  24343.78499197  .00003750  00000+0  36220-3 0  9993
2 60575  97.7304  57.2880 0004796 107.8669 252.3074 14.93420885 16990
LEMUR-2-AHMED-ASRAR     
1 60576U 24149DN  24344.17120484  .00017938  00000+0  15533-2 0  9994
2 60576  97.7374  58.1259 0007552  98.3123 261.8956 14.97165379 17072
LEMUR-2-LLOYD           
1 60577U 24149DP  24344.16191359  .00016648  00000+0  15160-2 0  9996
2 60577  97.7365  57.8268 0002828 165.0984 195.0320 14.95229815 17052
LEMUR-2-SQUIRRELCOMM    
1 60578U 24149DQ  24344.13480662  .00014172  00000+0  12516-2 0  9994
2 60578  97.7330  57.9692 0005697 111.3695 248.8134 14.96460399 17063
LEMUR-2-SIERRINI        
1 60579U 24149DR  24344.47575769  .00017024  00000+0  15344-2 0  9996
2 60579  97.7389  58.2302 0002630 150.2884 209.8487 14.95629353 17105
SEDNA-1                 
1 60580U 24149DS  24344.47525393  .00014671  00000+0  13008-2 0  9996
2 60580  97.7351  58.3384 0007433 108.7775 251.4253 14.96288216 17115
STARLINK-31844          
1 60583U 24150A   24344.10603332  .00000570  00000+0  31357-4 0  9993
2 60583  53.1616 262.8744 0001266 114.0427 246.0706 15.30198162 18294
STARLINK-32204          
1 60584U 24150B   24344.06710092  .00000814  00000+0  39618-4 0  9990
2 60584  53.1615 263.3462 0001196  75.2539 284.8594 15.30194095 18286
STARLINK-32130          
1 60585U 24150C   24344.48221390 -.00001200  00000+0 -28420-4 0  9996
2 60585  53.1632 261.6679 0001402  87.6717 272.4444 15.30187724 18189
STARLINK-32173          
1 60586U 24150D   24344.05443795  .00000556  00000+0  30894-4 0  9994
2 60586  53.1613 263.2645 0001466  64.1537 295.9615 15.30193817 18281
STARLINK-31911          
1 60587U 24150E   24344.47271077  .00000830  00000+0  40166-4 0  9991
2 60587  53.1613 261.6101 0001444  91.3561 268.7605 15.30191650 18220
STARLINK-31994          
1 60588U 24150F   24344.04705651  .00000186  00000+0  18407-4 0  9992
2 60588  53.1622 263.2154 0000735  83.3884 276.7201 15.30182827 18168
STARLINK-32169          
1 60589U 24150G   24344.10193663 -.00000868  00000+0 -17178-4 0  9997
2 60589  53.1613 263.5632 0001335  67.5715 292.5427 15.30185903 18284
STARLINK-32209          
1 60590U 24150H   24344.05971981 -.00000663  00000+0 -10267-4 0  9995
2 60590  53.1615 263.3014 0001372  83.5787 276.5370 15.30189163 18289
STARLINK-32170          
1 60591U 24150J   24344.48854250 -.00001448  00000+0 -36804-4 0  9999
2 60591  53.1607 261.7072 0001040 109.6650 250.4463 15.30188449 18222
STARLINK-31497          
1 60592U 24150K   24343.94281087  .00001200  00000+0  52665-4 0  9999
2 60592  53.1604 263.9872 0001328  76.8505 283.2643 15.30186408 18266
STARLINK-32161          
1 60593U 24150L   24344.05760265 -.00000241  00000+0  39931-5 0  9990
2 60593  53.1613 263.2835 0001247  74.2708 285.8430 15.30200331 18237
STARLINK-32210          
1 60594U 24150M   24344.17451384  .00002357  00000+0  91708-4 0  9991
2 60594  53.1598 262.5872 0001176  91.8386 268.2750 15.30185224 18302
STARLINK-32202          
1 60595U 24150N   24344.47905102 -.00000346  00000+0  44358-6 0  9995
2 60595  53.1604 261.6466 0001777  94.2550 265.8653 15.30182526 18348
STARLINK-31930          
1 60596U 24150P   24344.18084513  .00003086  00000+0  11632-3 0  9997
2 60596  53.1608 262.6280 0001325  78.8568 281.2581 15.30183726 18147
STARLINK-32162          
1 60597U 24150Q   24344.49170493  .00000546  00000+0  30559-4 0  9993
2 60597  53.1614 261.7298 0001161  89.4002 270.7132 15.30193870 18341
STARLINK-32208          
1 60598U 24150R   24343.77641001 -.00000004  00000+0  11986-4 0  9995
2 60598  53.1613 265.0860 0001018  76.0924 284.0190 15.30189682 18235
STARLINK-32165          
1 60599U 24150S   24344.48537563 -.00001132  00000+0 -26112-4 0  9993
2 60599  53.1609 261.6822 0001513  87.9569 272.1605 15.30196081 18349
STARLINK-31923          
1 60600U 24150T   24343.95229967 -.00000853  00000+0 -16675-4 0  9995
2 60600  53.1608 264.0458 0000921  65.1277 294.9819 15.30210361 18267
STARLINK-31988          
1 60601U 24150U   24344.20721961 -.00000294  00000+0  21936-5 0  9991
2 60601  53.1608 262.7901 0001359  76.2075 283.9077 15.30212952 18184
STARLINK-31983          
1 60602U 24150V   24344.19456714 -.00000286  00000+0  24647-5 0  9994
2 60602  53.1603 262.7121 0001202  79.9502 280.1635 15.30192453 18188
STARLINK-31874          
1 60603U 24150W   24344.07027487  .00002801  00000+0  10674-3 0  9990
2 60603  53.1620 263.3572 0001356  61.1990 298.9147 15.30175890 18281
STARLINK-32039          
1 60604U 24150X   24343.79909400 -.00000338  00000+0  70033-6 0  9995
2 60604  53.1621 267.3552 0001353  90.4895 269.6261 15.30199721 18204
